{
  "links" : {
    "next" : "https://api.nasa.gov/neo/rest/v1/feed?start_date=2005-12-23&end_date=2005-12-23&detailed=true&api_key=t0TVs3DtDT2H8Oy2Zy8m2eVrNsAVKAexjcZXUckd",
    "prev" : "https://api.nasa.gov/neo/rest/v1/feed?start_date=2005-12-21&end_date=2005-12-21&detailed=true&api_key=t0TVs3DtDT2H8Oy2Zy8m2eVrNsAVKAexjcZXUckd",
    "self" : "https://api.nasa.gov/neo/rest/v1/feed?start_date=2005-12-22&end_date=2005-12-22&detailed=true&api_key=t0TVs3DtDT2H8Oy2Zy8m2eVrNsAVKAexjcZXUckd"
  },
  "element_count" : 8,
  "near_earth_objects" : {
    "2005-12-22" : [ {
      "links" : {
        "self" : "https://api.nasa.gov/neo/rest/v1/neo/3309691?api_key=t0TVs3DtDT2H8Oy2Zy8m2eVrNsAVKAexjcZXUckd"
      },
      "neo_reference_id" : "3309691",
      "name" : "(2005 YV55)",
      "nasa_jpl_url" : "http://ssd.jpl.nasa.gov/sbdb.cgi?sstr=3309691",
      "absolute_magnitude_h" : 20.2,
      "estimated_diameter" : {
        "kilometers" : {
          "estimated_diameter_min" : 0.2424124811,
          "estimated_diameter_max" : 0.5420507863
        },
        "meters" : {
          "estimated_diameter_min" : 242.4124811008,
          "estimated_diameter_max" : 542.0507863358
        },
        "miles" : {
          "estimated_diameter_min" : 0.1506280858,
          "estimated_diameter_max" : 0.3368146392
        },
        "feet" : {
          "estimated_diameter_min" : 795.3165644948,
          "estimated_diameter_max" : 1778.3819018419
        }
      },
      "is_potentially_hazardous_asteroid" : false,
      "close_approach_data" : [ {
        "close_approach_date" : "2005-12-22",
        "epoch_date_close_approach" : 1135238400000,
        "relative_velocity" : {
          "kilometers_per_second" : "2.9634262204",
          "kilometers_per_hour" : "10668.3343933988",
          "miles_per_hour" : "6628.8881123871"
        },
        "miss_distance" : {
          "astronomical" : "0.2753239651",
          "lunar" : "107.101020813",
          "kilometers" : "41187880",
          "miles" : "25592960"
        },
        "orbiting_body" : "Earth"
      } ],
      "orbital_data" : {
        "orbit_id" : "31",
        "orbit_determination_date" : "2017-02-25 06:19:06",
        "orbit_uncertainty" : "0",
        "minimum_orbit_intersection" : ".223383",
        "jupiter_tisserand_invariant" : "3.780",
        "epoch_osculation" : "2457800.5",
        "eccentricity" : ".3919713511413264",
        "semi_major_axis" : "1.958386291939719",
        "inclination" : "5.929267696986181",
        "ascending_node_longitude" : "126.6539896205281",
        "orbital_period" : "1001.027406012461",
        "perihelion_distance" : "1.190754971031456",
        "perihelion_argument" : "308.2453119516545",
        "aphelion_distance" : "2.726017612847984",
        "perihelion_time" : "2457706.369132843532",
        "mean_anomaly" : "33.85233208680661",
        "mean_motion" : ".3596305134482189",
        "equinox" : "J2000"
      }
    }, {
      "links" : {
        "self" : "https://api.nasa.gov/neo/rest/v1/neo/3703783?api_key=t0TVs3DtDT2H8Oy2Zy8m2eVrNsAVKAexjcZXUckd"
      },
      "neo_reference_id" : "3703783",
      "name" : "(2015 AF45)",
      "nasa_jpl_url" : "http://ssd.jpl.nasa.gov/sbdb.cgi?sstr=3703783",
      "absolute_magnitude_h" : 24.9,
      "estimated_diameter" : {
        "kilometers" : {
          "estimated_diameter_min" : 0.0278326768,
          "estimated_diameter_max" : 0.0622357573
        },
        "meters" : {
          "estimated_diameter_min" : 27.8326768072,
          "estimated_diameter_max" : 62.2357573367
        },
        "miles" : {
          "estimated_diameter_min" : 0.0172944182,
          "estimated_diameter_max" : 0.0386714948
        },
        "feet" : {
          "estimated_diameter_min" : 91.3145593761,
          "estimated_diameter_max" : 204.1855621004
        }
      },
      "is_potentially_hazardous_asteroid" : false,
      "close_approach_data" : [ {
        "close_approach_date" : "2005-12-22",
        "epoch_date_close_approach" : 1135238400000,
        "relative_velocity" : {
          "kilometers_per_second" : "7.5126210289",
          "kilometers_per_hour" : "27045.4357040376",
          "miles_per_hour" : "16804.9819795449"
        },
        "miss_distance" : {
          "astronomical" : "0.0938892562",
          "lunar" : "36.5229225159",
          "kilometers" : "14045633",
          "miles" : "8727552"
        },
        "orbiting_body" : "Earth"
      } ],
      "orbital_data" : {
        "orbit_id" : "6",
        "orbit_determination_date" : "2017-04-06 08:36:23",
        "orbit_uncertainty" : "6",
        "minimum_orbit_intersection" : ".00637285",
        "jupiter_tisserand_invariant" : "4.903",
        "epoch_osculation" : "2458000.5",
        "eccentricity" : ".3698295170597243",
        "semi_major_axis" : "1.309437049795553",
        "inclination" : "4.484025732881697",
        "ascending_node_longitude" : "288.6372816191418",
        "orbital_period" : "547.2998942053252",
        "perihelion_distance" : ".8251685780495536",
        "perihelion_argument" : "109.1914024102917",
        "aphelion_distance" : "1.793705521541553",
        "perihelion_time" : "2458070.005390812606",
        "mean_anomaly" : "314.2811154223414",
        "mean_motion" : ".6577746566582421",
        "equinox" : "J2000"
      }
    }, {
      "links" : {
        "self" : "https://api.nasa.gov/neo/rest/v1/neo/3723829?api_key=t0TVs3DtDT2H8Oy2Zy8m2eVrNsAVKAexjcZXUckd"
      },
      "neo_reference_id" : "3723829",
      "name" : "(2015 MQ116)",
      "nasa_jpl_url" : "http://ssd.jpl.nasa.gov/sbdb.cgi?sstr=3723829",
      "absolute_magnitude_h" : 23.4,
      "estimated_diameter" : {
        "kilometers" : {
          "estimated_diameter_min" : 0.0555334912,
          "estimated_diameter_max" : 0.1241766613
        },
        "meters" : {
          "estimated_diameter_min" : 55.5334911581,
          "estimated_diameter_max" : 124.1766612574
        },
        "miles" : {
          "estimated_diameter_min" : 0.0345069009,
          "estimated_diameter_max" : 0.0771597762
        },
        "feet" : {
          "estimated_diameter_min" : 182.1964991311,
          "estimated_diameter_max" : 407.4037573197
        }
      },
      "is_potentially_hazardous_asteroid" : false,
      "close_approach_data" : [ {
        "close_approach_date" : "2005-12-22",
        "epoch_date_close_approach" : 1135238400000,
        "relative_velocity" : {
          "kilometers_per_second" : "18.7801691406",
          "kilometers_per_hour" : "67608.6089059944",
          "miles_per_hour" : "42009.3603505052"
        },
        "miss_distance" : {
          "astronomical" : "0.3985094576",
          "lunar" : "155.0201721191",
          "kilometers" : "59616164",
          "miles" : "37043768"
        },
        "orbiting_body" : "Earth"
      } ],
      "orbital_data" : {
        "orbit_id" : "10",
        "orbit_determination_date" : "2017-04-06 08:32:54",
        "orbit_uncertainty" : "6",
        "minimum_orbit_intersection" : ".0305581",
        "jupiter_tisserand_invariant" : "5.641",
        "epoch_osculation" : "2458000.5",
        "eccentricity" : ".1813516565741239",
        "semi_major_axis" : "1.090677056358233",
        "inclination" : "14.80055727225129",
        "ascending_node_longitude" : "281.6352286954482",
        "orbital_period" : "416.0472855887982",
        "perihelion_distance" : ".8928809654002785",
        "perihelion_argument" : "258.7950719631891",
        "aphelion_distance" : "1.288473147316188",
        "perihelion_time" : "2457943.867012951340",
        "mean_anomaly" : "49.0037455926777",
        "mean_motion" : ".8652862606482842",
        "equinox" : "J2000"
      }
    } ]
  }
}